OBJECT_NAME,OBJECT_ID,EPOCH,MEAN_MOTION,ECCENTRICITY,INCLINATION,RA_OF_ASC_NODE,ARG_OF_PERICENTER,MEAN_ANOMALY,EPHEMERIS_TYPE,CLASSIFICATION_TYPE,NORAD_CAT_ID,ELEMENT_SET_NO,REV_AT_EPOCH,BSTAR,MEAN_MOTION_DOT,MEAN_MOTION_DDOT
BEIDOU-3S IGSO-1S (C31),2015-019A,2026-06-19T23:53:37.596192,1.00249609,.00388634,49.1899,295.4270,191.0750,231.2891,0,U,40549,999,4110,0,-.176E-5,0
GPS BIIF-10 (PRN 08),2015-033A,2026-06-21T17:00:06.021792,2.00556021,.01151116,53.9787,266.9000,30.2347,330.4614,0,U,40730,999,8008,0,-.65E-6,0
BEIDOU-3S M2S (C58),2015-037A,2026-06-19T11:18:28.045152,1.86231851,.00084322,54.8690,301.9679,258.8961,101.0039,0,U,40748,999,7416,0,-.84E-6,0
BEIDOU-3S M1S (C57),2015-037B,2026-06-22T08:42:16.092000,1.86254902,.00033241,54.8625,301.8556,62.2572,297.7705,0,U,40749,999,7422,0,-.104E-5,0
GSAT0206 (GALILEO 10),2015-045B,2026-06-22T03:35:54.564576,1.70473779,.00016818,54.9437,221.4672,335.4186,24.6481,0,U,40890,999,6712,0,.33E-6,0
BEIDOU-3S IGSO-2S (C56),2015-053A,2026-06-22T16:37:51.623904,1.00258354,.0065561,49.2111,258.7154,192.5613,163.9249,0,U,40938,999,3940,0,-.147E-5,0
GPS BIIF-11 (PRN 10),2015-062A,2026-06-21T18:20:36.425472,2.00567065,.01120411,56.9625,30.6347,231.0642,127.9776,0,U,41019,999,7792,0,-.97E-6,0
GSAT-15 (GAGAN/PRN 139),2015-065A,2026-06-22T20:01:32.929824,1.00272139,.00044872,0.0556,263.8487,169.5451,231.5259,0,U,41028,999,3885,0,-.255E-5,0
GSAT0209 (GALILEO 12),2015-079A,2026-06-21T03:28:38.867520,1.70473696,.00051972,55.8296,101.1534,346.3886,13.5783,0,U,41174,999,6484,0,-.19E-6,0
GSAT0208 (GALILEO 11),2015-079B,2026-06-22T12:55:14.356704,1.70473694,.00048395,55.8290,101.1119,343.6998,16.2634,0,U,41175,999,6528,0,-.27E-6,0
IRNSS-1E,2016-003A,2026-06-18T17:31:47.913024,1.00277463,.00189408,33.2372,59.7280,178.9729,42.9724,0,U,41241,999,3809,0,-.318E-5,0
GPS BIIF-12 (PRN 32),2016-007A,2026-06-13T21:04:02.010720,2.00551861,.00961206,55.5220,89.5909,247.4205,111.5460,0,U,41328,999,7577,0,-.28E-6,0
COSMOS 2514 (751),2016-008A,2026-06-21T23:27:59.232960,2.13102642,.00114942,65.0184,312.8421,198.5260,161.4255,0,U,41330,999,8072,0,-.72E-6,0
BEIDOU-2 IGSO-6 (C13),2016-021A,2026-06-21T02:16:51.754080,1.00259258,.00574392,60.2315,37.9988,231.3221,126.8353,0,U,41434,999,3751,0,-.159E-5,0
IRNSS-1G,2016-027A,2026-06-22T20:25:46.371360,1.00256861,.00080215,5.2104,97.3452,0.5275,248.8474,0,U,41469,999,3723,0,-.335E-5,0
GSAT0211 (GALILEO 14),2016-030A,2026-06-22T01:48:56.650752,1.70473978,.00030327,55.0940,221.5604,321.7205,38.3326,0,U,41549,999,6275,0,.33E-6,0
GSAT0210 (GALILEO 13),2016-030B,2026-06-18T05:26:40.813728,1.70473788,.00050222,55.0944,221.6643,247.0655,112.9679,0,U,41550,999,6268,0,.31E-6,0
BEIDOU-2 G7 (C03),2016-037A,2026-06-22T21:40:00.910848,1.00273887,.0006631,1.7351,69.3831,358.8787,278.3478,0,U,41586,999,694,0,-.351E-5,0
EUTELSAT 117 WEST B (WAAS/PRN 131),2016-038B,2026-06-22T13:53:36.451968,1.00271359,.00002178,0.0081,158.7627,329.7769,233.6314,0,U,41589,999,3671,0,-.9E-7,0
GSAT0207 (GALILEO 15),2016-069A,2026-06-20T06:21:31.580640,1.70473552,.00052089,55.5005,101.0011,331.0936,28.8582,0,U,41859,999,5945,0,-.15E-6,0
GSAT0212 (GALILEO 16),2016-069B,2026-06-22T11:09:12.531168,1.70473711,.00045534,55.4994,100.9352,5.8604,354.1239,0,U,41860,999,5974,0,-.27E-6,0
GSAT0213 (GALILEO 17),2016-069C,2026-06-22T05:53:18.101760,1.70474242,.00047219,55.5015,100.9492,314.9324,45.0088,0,U,41861,999,5960,0,-.26E-6,0
GSAT0214 (GALILEO 18),2016-069D,2026-06-21T19:19:10.755840,1.70473560,.00038497,55.5000,100.9540,321.2487,38.7039,0,U,41862,999,5972,0,-.23E-6,0
SES-15 (WAAS/PRN 133),2017-026A,2026-06-22T16:22:38.540064,1.00269052,.00005517,0.0192,340.0002,92.8328,314.5146,0,U,42709,999,748,0,.63E-6,0
QZS-2 (QZSS/PRN 194),2017-028A,2026-06-21T12:15:38.803392,1.00282746,.07589766,39.4210,243.0913,269.3162,83.0804,0,U,42738,999,767,0,-.184E-5,0
QZS-3 (QZSS/PRN 199),2017-048A,2026-06-22T20:11:09.508128,1.00273784,.00021125,0.0604,155.9950,291.4222,253.4195,0,U,42917,999,3231,0,-.344E-5,0
COSMOS 2522 (752),2017-055A,2026-06-21T19:34:21.995040,2.13101990,.00109024,64.0791,191.7269,240.6305,119.3054,0,U,42939,999,6807,0,.8E-6,0
QZS-4 (QZSS/PRN 195),2017-062A,2026-06-18T08:24:11.162880,1.00250086,.07450188,40.1070,343.4662,271.8091,274.2172,0,U,42965,999,3181,0,-.36E-5,0
BEIDOU-3 M1 (C19),2017-069A,2026-06-21T23:10:31.847232,1.86231094,.00102471,56.6967,62.9264,326.0763,33.8949,0,U,43001,999,5869,0,-.86E-6,0
BEIDOU-3 M2 (C20),2017-069B,2026-06-21T21:42:21.167424,1.86230526,.00090438,56.6951,62.9650,352.4787,7.5444,0,U,43002,999,5868,0,-.86E-6,0
