BEIDOU-3S IGSO-1S       
1 40549U 15019A   26170.99557403 -.00000176  00000+0  00000+0 0  9999
2 40549  49.1899 295.4270 0038863 191.0750 231.2891  1.00249609 41107
NAVSTAR 74 (USA 262)    
1 40730U 15033A   26172.70840303 -.00000065  00000+0  00000+0 0  9999
2 40730  53.9787 266.9000 0115111  30.2347 330.4614  2.00556021 80085
BEIDOU-3S M2S           
1 40748U 15037A   26170.47115793 -.00000084  00000+0  00000+0 0  9993
2 40748  54.8690 301.9679 0008432 258.8961 101.0039  1.86231851 74165
BEIDOU-3S M1S           
1 40749U 15037B   26173.36268625 -.00000104  00000+0  00000+0 0  9991
2 40749  54.8625 301.8556 0003324  62.2572 297.7705  1.86254902 74229
GSAT0206 (GALILEO 10)   
1 40890U 15045B   26173.14993709  .00000033  00000+0  00000+0 0  9991
2 40890  54.9437 221.4672 0001681 335.4186  24.6481  1.70473779 67121
BEIDOU-3S IGSO-2S       
1 40938U 15053A   26173.69295861 -.00000147  00000+0  00000+0 0  9994
2 40938  49.2111 258.7154 0065561 192.5613 163.9249  1.00258354 39404
NAVSTAR 75 (USA 265)    
1 41019U 15062A   26172.76431048 -.00000097  00000+0  00000+0 0  9995
2 41019  56.9625  30.6347 0112041 231.0642 127.9776  2.00567065 77925
GSAT-15                 
1 41028U 15065A   26173.83440891 -.00000255  00000+0  00000+0 0  9999
2 41028   0.0556 263.8487 0004487 169.5451 231.5259  1.00272139 38851
GSAT0209 (GALILEO 12)   
1 41174U 15079A   26172.14489430 -.00000019  00000+0  00000+0 0  9999
2 41174  55.8296 101.1534 0005197 346.3886  13.5783  1.70473696 64841
GSAT0208 (GALILEO 11)   
1 41175U 15079B   26173.53836061 -.00000027  00000+0  00000+0 0  9999
2 41175  55.8290 101.1119 0004839 343.6998  16.2634  1.70473694 65283
IRNSS-1E                
1 41241U 16003A   26169.73041566 -.00000318  00000+0  00000+0 0  9999
2 41241  33.2372  59.7280 0018940 178.9729  42.9724  1.00277463 38098
NAVSTAR 76 (USA 266)    
1 41328U 16007A   26164.87780105 -.00000028  00000+0  00000+0 0  9996
2 41328  55.5220  89.5909 0096120 247.4205 111.5460  2.00551861 75773
COSMOS 2514 [GLONASS-M] 
1 41330U 16008A   26172.97776890 -.00000072  00000+0  00000+0 0  9995
2 41330  65.0184 312.8421 0011494 198.5260 161.4255  2.13102642 80720
BEIDOU-2 IGSO-6         
1 41434U 16021A   26172.09504345 -.00000159  00000+0  00000+0 0  9998
2 41434  60.2315  37.9988 0057439 231.3221 126.8353  1.00259258 37517
IRNSS-1G                
1 41469U 16027A   26173.85123115 -.00000335  00000+0  00000+0 0  9995
2 41469   5.2104  97.3452 0008021   0.5275 248.8474  1.00256861 37239
GSAT0211 (GALILEO 14)   
1 41549U 16030A   26173.07565568  .00000033  00000+0  00000+0 0  9998
2 41549  55.0940 221.5604 0003032 321.7205  38.3326  1.70473978 62757
GSAT0210 (GALILEO 13)   
1 41550U 16030B   26169.22686127  .00000031  00000+0  00000+0 0  9995
2 41550  55.0944 221.6643 0005022 247.0655 112.9679  1.70473788 62688
BEIDOU-2 G7             
1 41586U 16037A   26173.90278832 -.00000351  00000+0  00000+0 0  9997
2 41586   1.7351  69.3831 0006631 358.8787 278.3478  1.00273887  6949
EUTELSAT 117 WEST B     
1 41589U 16038B   26173.57889412 -.00000009  00000+0  00000+0 0  9996
2 41589   0.0081 158.7627 0000217 329.7769 233.6314  1.00271359 36714
GSAT0207 (GALILEO 15)   
1 41859U 16069A   26171.26494885 -.00000015  00000+0  00000+0 0  9997
2 41859  55.5005 101.0011 0005208 331.0936  28.8582  1.70473552 59453
GSAT0212 (GALILEO 16)   
1 41860U 16069B   26173.46472837 -.00000027  00000+0  00000+0 0  9999
2 41860  55.4994 100.9352 0004553   5.8604 354.1239  1.70473711 59740
GSAT0213 (GALILEO 17)   
1 41861U 16069C   26173.24534840 -.00000026  00000+0  00000+0 0  9998
2 41861  55.5015 100.9492 0004721 314.9324  45.0088  1.70474242 59604
GSAT0214 (GALILEO 18)   
1 41862U 16069D   26172.80498560 -.00000023  00000+0  00000+0 0  9995
2 41862  55.5000 100.9540 0003849 321.2487  38.7039  1.70473560 59724
SES-15                  
1 42709U 17026A   26173.68239051  .00000063  00000+0  00000+0 0  9998
2 42709   0.0192 340.0002 0000551  92.8328 314.5146  1.00269052  7486
QZS-2 (MICHIBIKI-2)     
1 42738U 17028A   26172.51086578 -.00000184  00000+0  00000+0 0  9992
2 42738  39.4210 243.0913 0758976 269.3162  83.0804  1.00282746  7671
QZS-3 (MICHIBIKI-3)     
1 42917U 17048A   26173.84108227 -.00000344  00000+0  00000+0 0  9994
2 42917   0.0604 155.9950 0002112 291.4222 253.4195  1.00273784 32317
COSMOS 2522 [GLONASS-M] 
1 42939U 17055A   26172.81553235  .00000080  00000+0  00000+0 0  9991
2 42939  64.0791 191.7269 0010902 240.6305 119.3054  2.13101990 68073
QZS-4 (MICHIBIKI-4)     
1 42965U 17062A   26169.35012920 -.00000360  00000+0  00000+0 0  9996
2 42965  40.1070 343.4662 0745018 271.8091 274.2172  1.00250086 31811
BEIDOU-3 M1             
1 43001U 17069A   26172.96564638 -.00000086  00000+0  00000+0 0  9999
2 43001  56.6967  62.9264 0010247 326.0763  33.8949  1.86231094 58697
BEIDOU-3 M2             
1 43002U 17069B   26172.90441166 -.00000086  00000+0  00000+0 0  9994
2 43002  56.6951  62.9650 0009043 352.4787   7.5444  1.86230526 58687
